start=new Date('2021-09-24T00:00:00.000Z').valueOf();
sats=[{"RA_OF_ASC_NODE":"99.3796","MEAN_ANOMALY":"28.4337","BSTAR":"-0.00618180000000","EPHEMERIS_TYPE":"0","APOAPSIS":"335.305","REF_FRAME":"TEME","NORAD_CAT_ID":"49170","COUNTRY_CODE":"US","ELEMENT_SET_NO":"999","DECAY_DATE":null,"PERIOD":"91.069","GP_ID":"185351088","MEAN_MOTION_DDOT":"0.0000000000000","OBJECT_ID":"2021-082AS","RCS_SIZE":null,"MEAN_MOTION_DOT":"-0.01084926","REV_AT_EPOCH":"186","INCLINATION":"70.0001","OBJECT_TYPE":"PAYLOAD","MEAN_MOTION":"15.81224014","SEMIMAJOR_AXIS":"6705.115","PERIAPSIS":"318.656","LAUNCH_DATE":"2021-09-14","CENTER_NAME":"EARTH","FILE":"3125337","CLASSIFICATION_TYPE":"U","EPOCH":"2021-09-23T22:00:01.999584","TIME_SYSTEM":"UTC","MEAN_ELEMENT_THEORY":"SGP4","TLE_LINE1":"1 49170U 21082AS  21266.91668981 -.01084926  00000-0 -61818-2 0  9997","SITE":"AFWTR","ECCENTRICITY":"0.00124150","TLE_LINE2":"2 49170  70.0001  99.3796 0012415 183.5952  28.4337 15.81224014  1860","OBJECT_NAME":"STARLINK-3074","ARG_OF_PERICENTER":"183.5952"},{"PERIOD":"91.080","COUNTRY_CODE":"US","ELEMENT_SET_NO":"999","DECAY_DATE":null,"REF_FRAME":"TEME","NORAD_CAT_ID":"49171","APOAPSIS":"335.653","BSTAR":"-0.00622450000000","EPHEMERIS_TYPE":"0","MEAN_ANOMALY":"22.0359","RA_OF_ASC_NODE":"99.3860","OBJECT_TYPE":"PAYLOAD","INCLINATION":"70.0001","REV_AT_EPOCH":"186","RCS_SIZE":null,"MEAN_MOTION_DOT":"-0.01082707","OBJECT_ID":"2021-082AT","MEAN_MOTION_DDOT":"0.0000000000000","GP_ID":"185351191","CLASSIFICATION_TYPE":"U","EPOCH":"2021-09-23T22:00:01.999584","FILE":"3125337","CENTER_NAME":"EARTH","PERIAPSIS":"319.376","LAUNCH_DATE":"2021-09-14","SEMIMAJOR_AXIS":"6705.649","MEAN_MOTION":"15.81035051","OBJECT_NAME":"STARLINK-3107","ARG_OF_PERICENTER":"184.6731","TLE_LINE2":"2 49171  70.0001  99.3860 0012137 184.6731  22.0359 15.81035051  1866","ECCENTRICITY":"0.00121370","SITE":"AFWTR","TLE_LINE1":"1 49171U 21082AT  21266.91668981 -.01082707  00000-0 -62245-2 0  9998","TIME_SYSTEM":"UTC","MEAN_ELEMENT_THEORY":"SGP4"},{"BSTAR":"-0.00617470000000","EPHEMERIS_TYPE":"0","APOAPSIS":"334.997","RA_OF_ASC_NODE":"99.3781","MEAN_ANOMALY":"29.4268","PERIOD":"91.066","REF_FRAME":"TEME","NORAD_CAT_ID":"49172","COUNTRY_CODE":"US","DECAY_DATE":null,"ELEMENT_SET_NO":"999","RCS_SIZE":null,"MEAN_MOTION_DOT":"-0.01085686","GP_ID":"185350991","OBJECT_ID":"2021-082AU","MEAN_MOTION_DDOT":"0.0000000000000","INCLINATION":"70.0001","OBJECT_TYPE":"PAYLOAD","REV_AT_EPOCH":"186","PERIAPSIS":"318.688","LAUNCH_DATE":"2021-09-14","CENTER_NAME":"EARTH","MEAN_MOTION":"15.81272768","SEMIMAJOR_AXIS":"6704.977","FILE":"3125337","CLASSIFICATION_TYPE":"U","EPOCH":"2021-09-23T22:00:01.999584","TLE_LINE1":"1 49172U 21082AU  21266.91668981 -.01085686  00000-0 -61747-2 0  9994","TIME_SYSTEM":"UTC","MEAN_ELEMENT_THEORY":"SGP4","TLE_LINE2":"2 49172  70.0001  99.3781 0012162 183.9013  29.4268 15.81272768  1860","OBJECT_NAME":"STARLINK-3091","ARG_OF_PERICENTER":"183.9013","SITE":"AFWTR","ECCENTRICITY":"0.00121620"},{"PERIAPSIS":"291.632","LAUNCH_DATE":"2021-09-14","CENTER_NAME":"EARTH","MEAN_MOTION":"15.87028455","SEMIMAJOR_AXIS":"6688.756","FILE":"3125337","EPOCH":"2021-09-23T22:00:01.999584","CLASSIFICATION_TYPE":"U","TLE_LINE1":"1 49173U 21082AV  21266.91668981 -.01026041  30196-3 -38375-2 0  9998","TIME_SYSTEM":"UTC","MEAN_ELEMENT_THEORY":"SGP4","TLE_LINE2":"2 49173  70.0001  99.2734 0028390 157.9347 146.9075 15.87028455  1868","OBJECT_NAME":"STARLINK-3045","ARG_OF_PERICENTER":"157.9347","SITE":"AFWTR","ECCENTRICITY":"0.00283900","EPHEMERIS_TYPE":"0","BSTAR":"-0.00383750000000","APOAPSIS":"329.611","RA_OF_ASC_NODE":"99.2734","MEAN_ANOMALY":"146.9075","PERIOD":"90.736","NORAD_CAT_ID":"49173","REF_FRAME":"TEME","ELEMENT_SET_NO":"999","DECAY_DATE":null,"COUNTRY_CODE":"US","MEAN_MOTION_DOT":"-0.01026041","RCS_SIZE":null,"GP_ID":"185351726","OBJECT_ID":"2021-082AV","MEAN_MOTION_DDOT":"0.0003019600000","INCLINATION":"70.0001","OBJECT_TYPE":"PAYLOAD","REV_AT_EPOCH":"186"},{"EPHEMERIS_TYPE":"0","BSTAR":"-0.00619550000000","APOAPSIS":"335.184","RA_OF_ASC_NODE":"99.3813","MEAN_ANOMALY":"25.7679","PERIOD":"91.072","NORAD_CAT_ID":"49174","REF_FRAME":"TEME","DECAY_DATE":null,"ELEMENT_SET_NO":"999","COUNTRY_CODE":"US","MEAN_MOTION_DOT":"-0.01084358","RCS_SIZE":null,"GP_ID":"185351413","MEAN_MOTION_DDOT":"0.0000000000000","OBJECT_ID":"2021-082AW","INCLINATION":"70.0001","OBJECT_TYPE":"PAYLOAD","REV_AT_EPOCH":"186","LAUNCH_DATE":"2021-09-14","PERIAPSIS":"319.053","CENTER_NAME":"EARTH","MEAN_MOTION":"15.81175024","SEMIMAJOR_AXIS":"6705.254","FILE":"3125337","EPOCH":"2021-09-23T22:00:01.999584","CLASSIFICATION_TYPE":"U","TLE_LINE1":"1 49174U 21082AW  21266.91668981 -.01084358  00000-0 -61955-2 0  9992","MEAN_ELEMENT_THEORY":"SGP4","TIME_SYSTEM":"UTC","TLE_LINE2":"2 49174  70.0001  99.3813 0012029 184.9668  25.7679 15.81175024  1869","OBJECT_NAME":"STARLINK-3047","ARG_OF_PERICENTER":"184.9668","SITE":"AFWTR","ECCENTRICITY":"0.00120290"},{"REV_AT_EPOCH":"186","OBJECT_TYPE":"PAYLOAD","INCLINATION":"70.0001","MEAN_MOTION_DDOT":"0.0000000000000","OBJECT_ID":"2021-082AX","GP_ID":"185351516","MEAN_MOTION_DOT":"-0.01086252","RCS_SIZE":null,"ELEMENT_SET_NO":"999","DECAY_DATE":null,"COUNTRY_CODE":"US","NORAD_CAT_ID":"49175","REF_FRAME":"TEME","PERIOD":"91.063","MEAN_ANOMALY":"30.1797","RA_OF_ASC_NODE":"99.3766","APOAPSIS":"334.777","EPHEMERIS_TYPE":"0","BSTAR":"-0.00616650000000","ECCENTRICITY":"0.00120240","SITE":"AFWTR","OBJECT_NAME":"STARLINK-3087","ARG_OF_PERICENTER":"184.5079","TLE_LINE2":"2 49175  70.0001  99.3766 0012024 184.5079  30.1797 15.81317707  1861","TIME_SYSTEM":"UTC","MEAN_ELEMENT_THEORY":"SGP4","TLE_LINE1":"1 49175U 21082AX  21266.91668981 -.01086252  00000-0 -61665-2 0  9996","EPOCH":"2021-09-23T22:00:01.999584","CLASSIFICATION_TYPE":"U","FILE":"3125337","SEMIMAJOR_AXIS":"6704.850","MEAN_MOTION":"15.81317707","CENTER_NAME":"EARTH","LAUNCH_DATE":"2021-09-14","PERIAPSIS":"318.653"},{"CENTER_NAME":"EARTH","PERIAPSIS":"317.986","LAUNCH_DATE":"2021-09-14","SEMIMAJOR_AXIS":"6704.319","MEAN_MOTION":"15.81505789","EPOCH":"2021-09-23T22:00:01.999584","CLASSIFICATION_TYPE":"U","FILE":"3125337","TLE_LINE1":"1 49176U 21082AY  21266.91668981 -.01088571  00000-0 -61255-2 0  9998","MEAN_ELEMENT_THEORY":"SGP4","TIME_SYSTEM":"UTC","ARG_OF_PERICENTER":"184.5953","OBJECT_NAME":"STARLINK-3069","TLE_LINE2":"2 49176  70.0001  99.3703 0012228 184.5953  35.3509 15.81505789  1867","ECCENTRICITY":"0.00122280","SITE":"AFWTR","APOAPSIS":"334.382","EPHEMERIS_TYPE":"0","BSTAR":"-0.00612550000000","MEAN_ANOMALY":"35.3509","RA_OF_ASC_NODE":"99.3703","PERIOD":"91.052","DECAY_DATE":null,"ELEMENT_SET_NO":"999","COUNTRY_CODE":"US","NORAD_CAT_ID":"49176","REF_FRAME":"TEME","MEAN_MOTION_DOT":"-0.01088571","RCS_SIZE":null,"MEAN_MOTION_DDOT":"0.0000000000000","OBJECT_ID":"2021-082AY","GP_ID":"185351315","OBJECT_TYPE":"PAYLOAD","INCLINATION":"70.0001","REV_AT_EPOCH":"186"},{"OBJECT_TYPE":"PAYLOAD","INCLINATION":"70.0001","REV_AT_EPOCH":"186","RCS_SIZE":null,"MEAN_MOTION_DOT":"-0.01086782","OBJECT_ID":"2021-082AZ","MEAN_MOTION_DDOT":"0.0000000000000","GP_ID":"185351621","PERIOD":"91.060","COUNTRY_CODE":"US","DECAY_DATE":null,"ELEMENT_SET_NO":"999","REF_FRAME":"TEME","NORAD_CAT_ID":"49177","APOAPSIS":"334.471","BSTAR":"-0.00615730000000","EPHEMERIS_TYPE":"0","MEAN_ANOMALY":"30.6584","RA_OF_ASC_NODE":"99.3750","OBJECT_NAME":"STARLINK-3103","ARG_OF_PERICENTER":"185.2877","TLE_LINE2":"2 49177  70.0001  99.3750 0011780 185.2877  30.6584 15.81368270  1868","ECCENTRICITY":"0.00117800","SITE":"AFWTR","TLE_LINE1":"1 49177U 21082AZ  21266.91668981 -.01086782  00000-0 -61573-2 0  9994","MEAN_ELEMENT_THEORY":"SGP4","TIME_SYSTEM":"UTC","CLASSIFICATION_TYPE":"U","EPOCH":"2021-09-23T22:00:01.999584","FILE":"3125337","CENTER_NAME":"EARTH","LAUNCH_DATE":"2021-09-14","PERIAPSIS":"318.674","SEMIMAJOR_AXIS":"6704.707","MEAN_MOTION":"15.81368270"},{"APOAPSIS":"334.552","EPHEMERIS_TYPE":"0","BSTAR":"-0.00613550000000","MEAN_ANOMALY":"35.0305","RA_OF_ASC_NODE":"99.3718","PERIOD":"91.055","ELEMENT_SET_NO":"999","DECAY_DATE":null,"COUNTRY_CODE":"US","NORAD_CAT_ID":"49178","REF_FRAME":"TEME","MEAN_MOTION_DOT":"-0.01087996","RCS_SIZE":null,"OBJECT_ID":"2021-082BA","MEAN_MOTION_DDOT":"0.0000000000000","GP_ID":"185351089","OBJECT_TYPE":"PAYLOAD","INCLINATION":"70.0001","REV_AT_EPOCH":"186","CENTER_NAME":"EARTH","LAUNCH_DATE":"2021-09-14","PERIAPSIS":"318.092","SEMIMAJOR_AXIS":"6704.457","MEAN_MOTION":"15.81456898","EPOCH":"2021-09-23T22:00:01.999584","CLASSIFICATION_TYPE":"U","FILE":"3125337","TLE_LINE1":"1 49178U 21082BA  21266.91668981 -.01087996  00000-0 -61355-2 0  9991","MEAN_ELEMENT_THEORY":"SGP4","TIME_SYSTEM":"UTC","ARG_OF_PERICENTER":"183.6381","OBJECT_NAME":"STARLINK-3086","TLE_LINE2":"2 49178  70.0001  99.3718 0012275 183.6381  35.0305 15.81456898  1869","ECCENTRICITY":"0.00122750","SITE":"AFWTR"},{"BSTAR":"-0.00614660000000","EPHEMERIS_TYPE":"0","APOAPSIS":"334.577","RA_OF_ASC_NODE":"99.3734","MEAN_ANOMALY":"32.6586","PERIOD":"91.058","REF_FRAME":"TEME","NORAD_CAT_ID":"49179","COUNTRY_CODE":"US","DECAY_DATE":null,"ELEMENT_SET_NO":"999","RCS_SIZE":null,"MEAN_MOTION_DOT":"-0.01087382","GP_ID":"185351192","OBJECT_ID":"2021-082BB","MEAN_MOTION_DDOT":"0.0000000000000","INCLINATION":"70.0001","OBJECT_TYPE":"PAYLOAD","REV_AT_EPOCH":"186","PERIAPSIS":"318.336","LAUNCH_DATE":"2021-09-14","CENTER_NAME":"EARTH","MEAN_MOTION":"15.81409354","SEMIMAJOR_AXIS":"6704.591","FILE":"3125337","CLASSIFICATION_TYPE":"U","EPOCH":"2021-09-23T22:00:01.999584","TLE_LINE1":"1 49179U 21082BB  21266.91668981 -.01087382  00000-0 -61466-2 0  9994","TIME_SYSTEM":"UTC","MEAN_ELEMENT_THEORY":"SGP4","TLE_LINE2":"2 49179  70.0001  99.3734 0012112 184.7062  32.6586 15.81409354  1865","OBJECT_NAME":"STARLINK-3043","ARG_OF_PERICENTER":"184.7062","SITE":"AFWTR","ECCENTRICITY":"0.00121120"}];
